COSMOS 2251 DEB         
1 40794U 93036BVX 17346.34377580  .00001052  00000-0  33869-3 0  9993
2 40794  73.9941 226.8018 0036908 306.4621 173.1807 14.40185300195710
